NOAA 14                 
1 23455U 94089A   25006.95901184  .00000212  00000+0  13147-3 0  9992
2 23455  98.4489 357.8408 0009956 150.3044 209.8697 14.14522527548803
NOAA 14 DEB             
1 38732U 94089D   25006.85740643  .00007300  00000+0  28192-2 0  9996
2 38732  98.6469  97.9740 0012595 139.1348 221.0780 14.30406771645800
